{"type": "FeatureCollection", "features": [ {"type": "Feature", "properties": {"norad_id": 42741, "name": "EUTELSAT 172B", "group": "eutelsat", "lat": 0.0032738387831376323, "lon": 106.53972374325092, "alt_km": 35786.6603516522, "timestamp": "2025-12-06T14:35:36.798841+00:00", "meta": {"OBJECT_NAME": "EUTELSAT 172B", "OBJECT_ID": "2017-029B", "EPOCH": "2025-12-05T21:21:42.715872", "MEAN_MOTION": 1.00271098, "ECCENTRICITY": 1.563e-05, "INCLINATION": 0.0102, "RA_OF_ASC_NODE": 82.7669, "ARG_OF_PERICENTER": 152.681, "MEAN_ANOMALY": 331.9231, "EPHEMERIS_TYPE": 0, "CLASSIFICATION_TYPE": "U", "NORAD_CAT_ID": 42741, "ELEMENT_SET_NO": 999, "REV_AT_EPOCH": 3179, "BSTAR": 0, "MEAN_MOTION_DOT": 4e-08, "MEAN_MOTION_DDOT": 0}, "tle": {"line1": "1 42741U 17029B   25339.89007773  .00000004  00000+0  00000+0 0  9992", "line2": "2 42741   0.0102  82.7669 0000156 152.6810 331.9231  1.00271098 31796"}}, "geometry": {"type": "Point", "coordinates": [106.53972374325092, 0.0032738387831376323]}}, {"type": "Feature", "properties": {"norad_id": 44334, "name": "EUTELSAT 7C", "group": "eutelsat", "lat": 0.05042978330889716, "lon": -58.44924359166603, "alt_km": 35779.59819472343, "timestamp": "2025-12-06T14:35:36.798853+00:00", "meta": {"OBJECT_NAME": "EUTELSAT 7C", "OBJECT_ID": "2019-034B", "EPOCH": "2025-12-06T03:25:30.364320", "MEAN_MOTION": 1.00270039, "ECCENTRICITY": 0.00034504, "INCLINATION": 0.0751, "RA_OF_ASC_NODE": 179.1623, "ARG_OF_PERICENTER": 60.529, "MEAN_ANOMALY": 253.8532, "EPHEMERIS_TYPE": 0, "CLASSIFICATION_TYPE": "U", "NORAD_CAT_ID": 44334, "ELEMENT_SET_NO": 999, "REV_AT_EPOCH": 490, "BSTAR": 0, "MEAN_MOTION_DOT": 5.6e-07, "MEAN_MOTION_DDOT": 0}, "tle": {"line1": "1 44334U 19034B   25340.14271255  .00000056  00000+0  00000+0 0  9995", "line2": "2 44334   0.0751 179.1623 0003450  60.5290 253.8532  1.00270039  4909"}}, "geometry": {"type": "Point", "coordinates": [-58.44924359166603, 0.05042978330889716]}}, {"type": "Feature", "properties": {"norad_id": 44624, "name": "EUTELSAT 5 WEST B", "group": "eutelsat", "lat": -0.06574289219242159, "lon": -70.437297881837, "alt_km": 35773.80450780967, "timestamp": "2025-12-06T14:35:36.798865+00:00", "meta": {"OBJECT_NAME": "EUTELSAT 5 WEST B", "OBJECT_ID": "2019-067A", "EPOCH": "2025-12-06T06:08:38.706720", "MEAN_MOTION": 1.00270399, "ECCENTRICITY": 0.00035924, "INCLINATION": 0.0675, "RA_OF_ASC_NODE": 334.5207, "ARG_OF_PERICENTER": 281.3365, "MEAN_ANOMALY": 266.6069, "EPHEMERIS_TYPE": 0, "CLASSIFICATION_TYPE": "U", "NORAD_CAT_ID": 44624, "ELEMENT_SET_NO": 999, "REV_AT_EPOCH": 2250, "BSTAR": 0, "MEAN_MOTION_DOT": -3.4e-07, "MEAN_MOTION_DDOT": 0}, "tle": {"line1": "1 44624U 19067A   25340.25600355 -.00000034  00000+0  00000+0 0  9999", "line2": "2 44624   0.0675 334.5207 0003592 281.3365 266.6069  1.00270399 22506"}}, "geometry": {"type": "Point", "coordinates": [-70.437297881837, -0.06574289219242159]}}, {"type": "Feature", "properties": {"norad_id": 45027, "name": "EUTELSAT KONNECT", "group": "eutelsat", "lat": -0.044517957227597695, "lon": -58.28013120049976, "alt_km": 35779.5645902847, "timestamp": "2025-12-06T14:35:36.798876+00:00", "meta": {"OBJECT_NAME": "EUTELSAT KONNECT", "OBJECT_ID": "2020-005B", "EPOCH": "2025-12-05T22:17:29.870880", "MEAN_MOTION": 1.00267987, "ECCENTRICITY": 0.00018557, "INCLINATION": 0.0712, "RA_OF_ASC_NODE": 98.3329, "ARG_OF_PERICENTER": 187.648, "MEAN_ANOMALY": 130.555, "EPHEMERIS_TYPE": 0, "CLASSIFICATION_TYPE": "U", "NORAD_CAT_ID": 45027, "ELEMENT_SET_NO": 999, "REV_AT_EPOCH": 2238, "BSTAR": 0, "MEAN_MOTION_DOT": 5.8e-07, "MEAN_MOTION_DDOT": 0}, "tle": {"line1": "1 45027U 20005B   25339.92881795  .00000058  00000+0  00000+0 0  9997", "line2": "2 45027   0.0712  98.3329 0001855 187.6480 130.5550  1.00267987 22381"}}, "geometry": {"type": "Point", "coordinates": [-58.28013120049976, -0.044517957227597695]}}, {"type": "Feature", "properties": {"norad_id": 49056, "name": "EUTELSAT QUANTUM", "group": "eutelsat", "lat": -0.019733117634212108, "lon": -17.72136370010167, "alt_km": 35782.336576309935, "timestamp": "2025-12-06T14:35:36.798887+00:00", "meta": {"OBJECT_NAME": "EUTELSAT QUANTUM", "OBJECT_ID": "2021-069B", "EPOCH": "2025-12-06T05:46:38.731584", "MEAN_MOTION": 1.00270382, "ECCENTRICITY": 0.00037051, "INCLINATION": 0.0261, "RA_OF_ASC_NODE": 39.9142, "ARG_OF_PERICENTER": 227.5936, "MEAN_ANOMALY": 302.1388, "EPHEMERIS_TYPE": 0, "CLASSIFICATION_TYPE": "U", "NORAD_CAT_ID": 49056, "ELEMENT_SET_NO": 999, "REV_AT_EPOCH": 1599, "BSTAR": 0, "MEAN_MOTION_DOT": 1.34e-06, "MEAN_MOTION_DDOT": 0}, "tle": {"line1": "1 49056U 21069B   25340.24072606  .00000134  00000+0  00000+0 0  9999", "line2": "2 49056   0.0261  39.9142 0003705 227.5936 302.1388  1.00270382 15994"}}, "geometry": {"type": "Point", "coordinates": [-17.72136370010167, -0.019733117634212108]}}, {"type": "Feature", "properties": {"norad_id": 53765, "name": "EUTELSAT KONNECT VHTS", "group": "eutelsat", "lat": -0.03145991478441827, "lon": -62.736093789013516, "alt_km": 35781.26495657171, "timestamp": "2025-12-06T14:35:36.798899+00:00", "meta": {"OBJECT_NAME": "EUTELSAT KONNECT VHTS", "OBJECT_ID": "2022-110A", "EPOCH": "2025-12-06T06:08:38.706720", "MEAN_MOTION": 1.00269437, "ECCENTRICITY": 0.00027173, "INCLINATION": 0.0615, "RA_OF_ASC_NODE": 107.7029, "ARG_OF_PERICENTER": 127.6893, "MEAN_ANOMALY": 294.7694, "EPHEMERIS_TYPE": 0, "CLASSIFICATION_TYPE": "U", "NORAD_CAT_ID": 53765, "ELEMENT_SET_NO": 999, "REV_AT_EPOCH": 489, "BSTAR": 0, "MEAN_MOTION_DOT": 2.5e-07, "MEAN_MOTION_DDOT": 0}, "tle": {"line1": "1 53765U 22110A   25340.25600355  .00000025  00000+0  00000+0 0  9997", "line2": "2 53765   0.0615 107.7029 0002717 127.6893 294.7694  1.00269437  4893"}}, "geometry": {"type": "Point", "coordinates": [-62.736093789013516, -0.03145991478441827]}}, {"type": "Feature", "properties": {"norad_id": 54048, "name": "EUTELSAT HOTBIRD 13F", "group": "eutelsat", "lat": 0.002366234062543302, "lon": -52.481044941369696, "alt_km": 35779.161129204775, "timestamp": "2025-12-06T14:35:36.798910+00:00", "meta": {"OBJECT_NAME": "EUTELSAT HOTBIRD 13F", "OBJECT_ID": "2022-134A", "EPOCH": "2025-12-06T01:44:32.536320", "MEAN_MOTION": 1.00271355, "ECCENTRICITY": 0.00023431, "INCLINATION": 0.0469, "RA_OF_ASC_NODE": 294.3782, "ARG_OF_PERICENTER": 57.7205, "MEAN_ANOMALY": 122.1557, "EPHEMERIS_TYPE": 0, "CLASSIFICATION_TYPE": "U", "NORAD_CAT_ID": 54048, "ELEMENT_SET_NO": 999, "REV_AT_EPOCH": 1144, "BSTAR": 0, "MEAN_MOTION_DOT": 9.6e-07, "MEAN_MOTION_DDOT": 0}, "tle": {"line1": "1 54048U 22134A   25340.07259880  .00000096  00000+0  00000+0 0  9999", "line2": "2 54048   0.0469 294.3782 0002343  57.7205 122.1557  1.00271355 11442"}}, "geometry": {"type": "Point", "coordinates": [-52.481044941369696, 0.002366234062543302]}}, {"type": "Feature", "properties": {"norad_id": 54225, "name": "EUTELSAT HOTBIRD 13G", "group": "eutelsat", "lat": 0.02376110073907915, "lon": -52.454097662405964, "alt_km": 35790.33278381605, "timestamp": "2025-12-06T14:35:36.798922+00:00", "meta": {"OBJECT_NAME": "EUTELSAT HOTBIRD 13G", "OBJECT_ID": "2022-146A", "EPOCH": "2025-12-05T15:28:18.292224", "MEAN_MOTION": 1.00270321, "ECCENTRICITY": 0.00019255, "INCLINATION": 0.0461, "RA_OF_ASC_NODE": 235.0424, "ARG_OF_PERICENTER": 313.1322, "MEAN_ANOMALY": 131.5912, "EPHEMERIS_TYPE": 0, "CLASSIFICATION_TYPE": "U", "NORAD_CAT_ID": 54225, "ELEMENT_SET_NO": 999, "REV_AT_EPOCH": 552, "BSTAR": 0, "MEAN_MOTION_DOT": 9.7e-07, "MEAN_MOTION_DDOT": 0}, "tle": {"line1": "1 54225U 22146A   25339.64465616  .00000097  00000+0  00000+0 0  9997", "line2": "2 54225   0.0461 235.0424 0001925 313.1322 131.5912  1.00270321  5523"}}, "geometry": {"type": "Point", "coordinates": [-52.454097662405964, 0.02376110073907915]}}, {"type": "Feature", "properties": {"norad_id": 54259, "name": "EUTELSAT 10B", "group": "eutelsat", "lat": -0.0379439881553516, "lon": -55.46436494119718, "alt_km": 35789.70483493081, "timestamp": "2025-12-06T14:35:36.798933+00:00", "meta": {"OBJECT_NAME": "EUTELSAT 10B", "OBJECT_ID": "2022-157A", "EPOCH": "2025-12-06T06:51:51.163776", "MEAN_MOTION": 1.00267264, "ECCENTRICITY": 0.00010794, "INCLINATION": 0.0619, "RA_OF_ASC_NODE": 103.5908, "ARG_OF_PERICENTER": 79.1281, "MEAN_ANOMALY": 5.5652, "EPHEMERIS_TYPE": 0, "CLASSIFICATION_TYPE": "U", "NORAD_CAT_ID": 54259, "ELEMENT_SET_NO": 999, "REV_AT_EPOCH": 1109, "BSTAR": 0, "MEAN_MOTION_DOT": 7.6e-07, "MEAN_MOTION_DDOT": 0}, "tle": {"line1": "1 54259U 22157A   25340.28600884  .00000076  00000+0  00000+0 0  9993", "line2": "2 54259   0.0619 103.5908 0001079  79.1281   5.5652  1.00267264 11096"}}, "geometry": {"type": "Point", "coordinates": [-55.46436494119718, -0.0379439881553516]}}, {"type": "Feature", "properties": {"norad_id": 59346, "name": "EUTELSAT 36D", "group": "eutelsat", "lat": -0.011072798321362563, "lon": -29.595499633409748, "alt_km": 35782.64678149012, "timestamp": "2025-12-06T14:35:36.798946+00:00", "meta": {"OBJECT_NAME": "EUTELSAT 36D", "OBJECT_ID": "2024-059A", "EPOCH": "2025-12-05T21:12:21.661920", "MEAN_MOTION": 1.00272563, "ECCENTRICITY": 7.535e-05, "INCLINATION": 0.0214, "RA_OF_ASC_NODE": 349.7189, "ARG_OF_PERICENTER": 331.5769, "MEAN_ANOMALY": 107.5891, "EPHEMERIS_TYPE": 0, "CLASSIFICATION_TYPE": "U", "NORAD_CAT_ID": 59346, "ELEMENT_SET_NO": 999, "REV_AT_EPOCH": 620, "BSTAR": 0, "MEAN_MOTION_DOT": 0, "MEAN_MOTION_DDOT": 0}, "tle": {"line1": "1 59346U 24059A   25339.88358405  .00000000  00000+0  00000+0 0  9998", "line2": "2 59346   0.0214 349.7189 0000753 331.5769 107.5891  1.00272563  6201"}}, "geometry": {"type": "Point", "coordinates": [-29.595499633409748, -0.011072798321362563]}}]}